[{"OBJECT_NAME":"COSMOS 2587 (RODNIK-S 21)","OBJECT_ID":"2025-054C","EPOCH":"2026-03-09T20:00:33.370848","MEAN_MOTION":12.42887882,"ECCENTRICITY":0.0014249,"INCLINATION":82.4993,"RA_OF_ASC_NODE":140.5257,"ARG_OF_PERICENTER":223.7134,"MEAN_ANOMALY":136.2818,"EPHEMERIS_TYPE":0,"CLASSIFICATION_TYPE":"U","NORAD_CAT_ID":63290,"ELEMENT_SET_NO":999,"REV_AT_EPOCH":4451,"BSTAR":0.00013922,"MEAN_MOTION_DOT":2.9e-7,"MEAN_MOTION_DDOT":0},{"OBJECT_NAME":"GB 2","OBJECT_ID":"1983-056D","EPOCH":"2026-03-09T14:43:25.991328","MEAN_MOTION":13.78053489,"ECCENTRICITY":0.0732375,"INCLINATION":63.3116,"RA_OF_ASC_NODE":172.1265,"ARG_OF_PERICENTER":130.2163,"MEAN_ANOMALY":236.5364,"EPHEMERIS_TYPE":0,"CLASSIFICATION_TYPE":"U","NORAD_CAT_ID":14144,"ELEMENT_SET_NO":999,"REV_AT_EPOCH":34222,"BSTAR":0.0006089,"MEAN_MOTION_DOT":4.982e-5,"MEAN_MOTION_DDOT":0}]
